USA 119                 
1 23893U 96029A   26068.41677233  .00001640  00000+0  29026-3 0  9998
2 23893  63.3196  93.1190 0846389  47.6314 319.3281 13.45886981 91843
STARLINK-35573          
1 66116U 25237C   26068.30297657  .00027032  00000+0  92161-3 0  9995
2 66116  53.1607  41.2626 0001364  85.8081 274.3075 15.30196329 22550
