[{"OBJECT_NAME":"USA 119","OBJECT_ID":"1996-029A","EPOCH":"2026-03-09T10:00:09.129312","MEAN_MOTION":13.45886981,"ECCENTRICITY":0.0846389,"INCLINATION":63.3196,"RA_OF_ASC_NODE":93.119,"ARG_OF_PERICENTER":47.6314,"MEAN_ANOMALY":319.3281,"EPHEMERIS_TYPE":0,"CLASSIFICATION_TYPE":"U","NORAD_CAT_ID":23893,"ELEMENT_SET_NO":999,"REV_AT_EPOCH":9184,"BSTAR":0.00029025737,"MEAN_MOTION_DOT":1.64e-5,"MEAN_MOTION_DDOT":0},{"OBJECT_NAME":"STARLINK-35573","OBJECT_ID":"2025-237C","EPOCH":"2026-03-09T07:16:17.175648","MEAN_MOTION":15.30196329,"ECCENTRICITY":0.00013646,"INCLINATION":53.1607,"RA_OF_ASC_NODE":41.2626,"ARG_OF_PERICENTER":85.8081,"MEAN_ANOMALY":274.3075,"EPHEMERIS_TYPE":0,"CLASSIFICATION_TYPE":"U","NORAD_CAT_ID":66116,"ELEMENT_SET_NO":999,"REV_AT_EPOCH":2255,"BSTAR":0.0009216063,"MEAN_MOTION_DOT":0.00027032,"MEAN_MOTION_DDOT":0}]
